IRIDIUM 166             
1 43570U 18061B   26025.13002949  .00000253  00000+0  83156-4 0  9994
2 43570  86.3986 116.5828 0002034  93.6210 266.5218 14.34216368392891
IRIDIUM 158             
1 43571U 18061C   26024.67970074  .00000408  00000+0  13868-3 0  9990
2 43571  86.3984 116.7811 0002331  96.4466 263.6995 14.34216201392793
IRIDIUM 165             
1 43572U 18061D   26024.70506360  .00000491  00000+0  16843-3 0  9996
2 43572  86.3986 116.8137 0002009  96.1759 263.9666 14.34215329392824
IRIDIUM 155             
1 43573U 18061E   26025.15539156  .00000518  00000+0  17804-3 0  9994
2 43573  86.3978 116.5019 0002234  91.6043 268.5409 14.34217265392858
IRIDIUM 154             
1 43574U 18061F   26024.99682365  .00000592  00000+0  20432-3 0  9990
2 43574  86.3986 116.6947 0001995  94.8009 265.3415 14.34214272392889
IRIDIUM 163             
1 43575U 18061G   26024.69872348 -.00000174  00000+0 -69044-4 0  9991
2 43575  86.3980 116.7388 0002170  99.0897 261.0544 14.34218981392812
IRIDIUM 156             
1 43576U 18061H   26024.67335615  .00000419  00000+0  14256-3 0  9995
2 43576  86.3987 116.7572 0002315  92.2118 267.9343 14.34215099392805
IRIDIUM 164             
1 43577U 18061J   26024.65432647  .00000184  00000+0  58481-4 0  9995
2 43577  86.3984 116.8026 0001940  96.6009 263.5407 14.34220338392847
